1 26871U 01031A   11004.10597890 -.00000287  00000-0  10000-3 0  9143
2 26871 001.0361 079.4128 0003138 244.9622 117.4174 01.00267113 34689